ONEWEB-0291             
1 49081U 21075G   26093.21428451  .00000053  00000+0  10426-3 0  9997
2 49081  87.9193  20.7463 0001667  67.6154 292.5154 13.17650291223732
ONEWEB-0293             
1 49082U 21075H   26093.23958818  .00000094  00000+0  20869-3 0  9992
2 49082  87.9182  20.7501 0001870  74.2450 285.8888 13.17651113223769
ONEWEB-0294             
1 49083U 21075J   26093.23687773 -.00000285  00000+0 -82823-3 0  9994
2 49083  87.9018   5.5405 0001978  69.6298 290.5043 13.12444050224749
ONEWEB-0295             
1 49084U 21075K   26093.23873600 -.00000204  00000+0 -55928-3 0  9998
2 49084  87.9175  20.7547 0001661  71.7394 288.3918 13.17648725223723
ONEWEB-0296             
1 49085U 21075L   26093.29277383  .00000315  00000+0  84071-3 0  9993
2 49085  87.9021   5.5345 0001598  67.9540 292.1759 13.12443970224750
ONEWEB-0297             
1 49086U 21075M   26093.24703068 -.00000306  00000+0 -88588-3 0  9992
2 49086  87.9008   5.5644 0001678  76.5978 283.5337 13.12445622225357
ONEWEB-0298             
1 49087U 21075N   26093.24310945  .00000130  00000+0  30205-3 0  9997
2 49087  87.9180  20.7510 0001740  82.4873 277.6456 13.17650202223755
ONEWEB-0299             
1 49088U 21075P   26093.24465687  .00000125  00000+0  28886-3 0  9998
2 49088  87.9192  20.7240 0001813  76.8534 283.2800 13.17650808223737
ONEWEB-0300             
1 49089U 21075Q   26093.23941898 -.00000313  00000+0 -90403-3 0  9996
2 49089  87.9020   5.5368 0001637  90.6054 269.5262 13.12442255225376
ONEWEB-0301             
1 49090U 21075R   26093.29956049  .00000120  00000+0  29900-3 0  9996
2 49090  87.9015   5.5253 0001780  90.2813 269.8520 13.12442063224740
ONEWEB-0302             
1 49091U 21075S   26093.20975932  .00000504  00000+0  13660-2 0  9991
2 49091  87.9017   5.5526 0001884  68.5042 291.6287 13.12444828224714
ONEWEB-0304             
1 49092U 21075T   26093.21932764  .00000096  00000+0  21367-3 0  9999
2 49092  87.9186  20.7579 0001707  75.6308 284.5013 13.17651265223703
ONEWEB-0305             
1 49093U 21075U   26093.28851663  .00000064  00000+0  13087-3 0  9990
2 49093  87.9193  20.7233 0001470  73.3036 286.8257 13.17652070223743
ONEWEB-0308             
1 49094U 21075V   26093.20298613  .00000430  00000+0  11612-2 0  9991
2 49094  87.9017   5.5465 0001777  78.4756 281.6572 13.12444963224729
ONEWEB-0309             
1 49095U 21075W   26093.29191250  .00000054  00000+0  10699-3 0  9997
2 49095  87.9185  20.7373 0001995  66.8630 293.2711 13.17649509223717
ONEWEB-0310             
1 49096U 21075X   26093.29448425  .00000305  00000+0  81246-3 0  9992
2 49096  87.9008   5.5571 0001832  77.8898 282.2436 13.12441808225363
ONEWEB-0311             
1 49097U 21075Y   26093.29864460  .00000108  00000+0  24434-3 0  9991
2 49097  87.9193  20.7310 0001354  79.1516 280.9768 13.17649405223763
