[{"OBJECT_NAME":"ONEWEB-0291","OBJECT_ID":"2021-075G","EPOCH":"2026-04-03T05:08:34.181664","MEAN_MOTION":13.17650291,"ECCENTRICITY":0.0001667,"INCLINATION":87.9193,"RA_OF_ASC_NODE":20.7463,"ARG_OF_PERICENTER":67.6154,"MEAN_ANOMALY":292.5154,"EPHEMERIS_TYPE":0,"CLASSIFICATION_TYPE":"U","NORAD_CAT_ID":49081,"ELEMENT_SET_NO":999,"REV_AT_EPOCH":22373,"BSTAR":0.00010426000000000001,"MEAN_MOTION_DOT":5.3e-07,"MEAN_MOTION_DDOT":0.0},{"OBJECT_NAME":"ONEWEB-0293","OBJECT_ID":"2021-075H","EPOCH":"2026-04-03T05:45:00.418752","MEAN_MOTION":13.17651113,"ECCENTRICITY":0.000187,"INCLINATION":87.9182,"RA_OF_ASC_NODE":20.7501,"ARG_OF_PERICENTER":74.245,"MEAN_ANOMALY":285.8888,"EPHEMERIS_TYPE":0,"CLASSIFICATION_TYPE":"U","NORAD_CAT_ID":49082,"ELEMENT_SET_NO":999,"REV_AT_EPOCH":22376,"BSTAR":0.00020868999999999998,"MEAN_MOTION_DOT":9.4e-07,"MEAN_MOTION_DDOT":0.0},{"OBJECT_NAME":"ONEWEB-0294","OBJECT_ID":"2021-075J","EPOCH":"2026-04-03T05:41:06.235872","MEAN_MOTION":13.1244405,"ECCENTRICITY":0.0001978,"INCLINATION":87.9018,"RA_OF_ASC_NODE":5.5405,"ARG_OF_PERICENTER":69.6298,"MEAN_ANOMALY":290.5043,"EPHEMERIS_TYPE":0,"CLASSIFICATION_TYPE":"U","NORAD_CAT_ID":49083,"ELEMENT_SET_NO":999,"REV_AT_EPOCH":22474,"BSTAR":-0.00082823,"MEAN_MOTION_DOT":-2.85e-06,"MEAN_MOTION_DDOT":0.0},{"OBJECT_NAME":"ONEWEB-0295","OBJECT_ID":"2021-075K","EPOCH":"2026-04-03T05:43:46.790400","MEAN_MOTION":13.17648725,"ECCENTRICITY":0.0001661,"INCLINATION":87.9175,"RA_OF_ASC_NODE":20.7547,"ARG_OF_PERICENTER":71.7394,"MEAN_ANOMALY":288.3918,"EPHEMERIS_TYPE":0,"CLASSIFICATION_TYPE":"U","NORAD_CAT_ID":49084,"ELEMENT_SET_NO":999,"REV_AT_EPOCH":22372,"BSTAR":-0.00055928,"MEAN_MOTION_DOT":-2.04e-06,"MEAN_MOTION_DDOT":0.0},{"OBJECT_NAME":"ONEWEB-0296","OBJECT_ID":"2021-075L","EPOCH":"2026-04-03T07:01:35.658912","MEAN_MOTION":13.1244397,"ECCENTRICITY":0.0001598,"INCLINATION":87.9021,"RA_OF_ASC_NODE":5.5345,"ARG_OF_PERICENTER":67.954,"MEAN_ANOMALY":292.1759,"EPHEMERIS_TYPE":0,"CLASSIFICATION_TYPE":"U","NORAD_CAT_ID":49085,"ELEMENT_SET_NO":999,"REV_AT_EPOCH":22475,"BSTAR":0.0008407099999999999,"MEAN_MOTION_DOT":3.15e-06,"MEAN_MOTION_DDOT":0.0},{"OBJECT_NAME":"ONEWEB-0297","OBJECT_ID":"2021-075M","EPOCH":"2026-04-03T05:55:43.450752","MEAN_MOTION":13.12445622,"ECCENTRICITY":0.0001678,"INCLINATION":87.9008,"RA_OF_ASC_NODE":5.5644,"ARG_OF_PERICENTER":76.5978,"MEAN_ANOMALY":283.5337,"EPHEMERIS_TYPE":0,"CLASSIFICATION_TYPE":"U","NORAD_CAT_ID":49086,"ELEMENT_SET_NO":999,"REV_AT_EPOCH":22535,"BSTAR":-0.00088588,"MEAN_MOTION_DOT":-3.06e-06,"MEAN_MOTION_DDOT":0.0},{"OBJECT_NAME":"ONEWEB-0298","OBJECT_ID":"2021-075N","EPOCH":"2026-04-03T05:50:04.656480","MEAN_MOTION":13.17650202,"ECCENTRICITY":0.000174,"INCLINATION":87.918,"RA_OF_ASC_NODE":20.751,"ARG_OF_PERICENTER":82.4873,"MEAN_ANOMALY":277.6456,"EPHEMERIS_TYPE":0,"CLASSIFICATION_TYPE":"U","NORAD_CAT_ID":49087,"ELEMENT_SET_NO":999,"REV_AT_EPOCH":22375,"BSTAR":0.00030205,"MEAN_MOTION_DOT":1.3e-06,"MEAN_MOTION_DDOT":0.0},{"OBJECT_NAME":"ONEWEB-0299","OBJECT_ID":"2021-075P","EPOCH":"2026-04-03T05:52:18.353568","MEAN_MOTION":13.17650808,"ECCENTRICITY":0.0001813,"INCLINATION":87.9192,"RA_OF_ASC_NODE":20.724,"ARG_OF_PERICENTER":76.8534,"MEAN_ANOMALY":283.28,"EPHEMERIS_TYPE":0,"CLASSIFICATION_TYPE":"U","NORAD_CAT_ID":49088,"ELEMENT_SET_NO":999,"REV_AT_EPOCH":22373,"BSTAR":0.00028886,"MEAN_MOTION_DOT":1.25e-06,"MEAN_MOTION_DDOT":0.0},{"OBJECT_NAME":"ONEWEB-0300","OBJECT_ID":"2021-075Q","EPOCH":"2026-04-03T05:44:45.799872","MEAN_MOTION":13.12442255,"ECCENTRICITY":0.0001637,"INCLINATION":87.902,"RA_OF_ASC_NODE":5.5368,"ARG_OF_PERICENTER":90.6054,"MEAN_ANOMALY":269.5262,"EPHEMERIS_TYPE":0,"CLASSIFICATION_TYPE":"U","NORAD_CAT_ID":49089,"ELEMENT_SET_NO":999,"REV_AT_EPOCH":22537,"BSTAR":-0.00090403,"MEAN_MOTION_DOT":-3.13e-06,"MEAN_MOTION_DDOT":0.0},{"OBJECT_NAME":"ONEWEB-0301","OBJECT_ID":"2021-075R","EPOCH":"2026-04-03T07:11:22.026336","MEAN_MOTION":13.12442063,"ECCENTRICITY":0.000178,"INCLINATION":87.9015,"RA_OF_ASC_NODE":5.5253,"ARG_OF_PERICENTER":90.2813,"MEAN_ANOMALY":269.852,"EPHEMERIS_TYPE":0,"CLASSIFICATION_TYPE":"U","NORAD_CAT_ID":49090,"ELEMENT_SET_NO":999,"REV_AT_EPOCH":22474,"BSTAR":0.000299,"MEAN_MOTION_DOT":1.2e-06,"MEAN_MOTION_DDOT":0.0},{"OBJECT_NAME":"ONEWEB-0302","OBJECT_ID":"2021-075S","EPOCH":"2026-04-03T05:02:03.205248","MEAN_MOTION":13.12444828,"ECCENTRICITY":0.0001884,"INCLINATION":87.9017,"RA_OF_ASC_NODE":5.5526,"ARG_OF_PERICENTER":68.5042,"MEAN_ANOMALY":291.6287,"EPHEMERIS_TYPE":0,"CLASSIFICATION_TYPE":"U","NORAD_CAT_ID":49091,"ELEMENT_SET_NO":999,"REV_AT_EPOCH":22471,"BSTAR":0.001366,"MEAN_MOTION_DOT":5.04e-06,"MEAN_MOTION_DDOT":0.0},{"OBJECT_NAME":"ONEWEB-0304","OBJECT_ID":"2021-075T","EPOCH":"2026-04-03T05:15:49.908096","MEAN_MOTION":13.17651265,"ECCENTRICITY":0.0001707,"INCLINATION":87.9186,"RA_OF_ASC_NODE":20.7579,"ARG_OF_PERICENTER":75.6308,"MEAN_ANOMALY":284.5013,"EPHEMERIS_TYPE":0,"CLASSIFICATION_TYPE":"U","NORAD_CAT_ID":49092,"ELEMENT_SET_NO":999,"REV_AT_EPOCH":22370,"BSTAR":0.00021367,"MEAN_MOTION_DOT":9.6e-07,"MEAN_MOTION_DDOT":0.0},{"OBJECT_NAME":"ONEWEB-0305","OBJECT_ID":"2021-075U","EPOCH":"2026-04-03T06:55:27.836832","MEAN_MOTION":13.1765207,"ECCENTRICITY":0.000147,"INCLINATION":87.9193,"RA_OF_ASC_NODE":20.7233,"ARG_OF_PERICENTER":73.3036,"MEAN_ANOMALY":286.8257,"EPHEMERIS_TYPE":0,"CLASSIFICATION_TYPE":"U","NORAD_CAT_ID":49093,"ELEMENT_SET_NO":999,"REV_AT_EPOCH":22374,"BSTAR":0.00013087,"MEAN_MOTION_DOT":6.4e-07,"MEAN_MOTION_DDOT":0.0},{"OBJECT_NAME":"ONEWEB-0308","OBJECT_ID":"2021-075V","EPOCH":"2026-04-03T04:52:18.001632","MEAN_MOTION":13.12444963,"ECCENTRICITY":0.0001777,"INCLINATION":87.9017,"RA_OF_ASC_NODE":5.5465,"ARG_OF_PERICENTER":78.4756,"MEAN_ANOMALY":281.6572,"EPHEMERIS_TYPE":0,"CLASSIFICATION_TYPE":"U","NORAD_CAT_ID":49094,"ELEMENT_SET_NO":999,"REV_AT_EPOCH":22472,"BSTAR":0.0011612,"MEAN_MOTION_DOT":4.3e-06,"MEAN_MOTION_DDOT":0.0},{"OBJECT_NAME":"ONEWEB-0309","OBJECT_ID":"2021-075W","EPOCH":"2026-04-03T07:00:21.240000","MEAN_MOTION":13.17649509,"ECCENTRICITY":0.0001995,"INCLINATION":87.9185,"RA_OF_ASC_NODE":20.7373,"ARG_OF_PERICENTER":66.863,"MEAN_ANOMALY":293.2711,"EPHEMERIS_TYPE":0,"CLASSIFICATION_TYPE":"U","NORAD_CAT_ID":49095,"ELEMENT_SET_NO":999,"REV_AT_EPOCH":22371,"BSTAR":0.00010699,"MEAN_MOTION_DOT":5.4e-07,"MEAN_MOTION_DDOT":0.0},{"OBJECT_NAME":"ONEWEB-0310","OBJECT_ID":"2021-075X","EPOCH":"2026-04-03T07:04:03.439200","MEAN_MOTION":13.12441808,"ECCENTRICITY":0.0001832,"INCLINATION":87.9008,"RA_OF_ASC_NODE":5.5571,"ARG_OF_PERICENTER":77.8898,"MEAN_ANOMALY":282.2436,"EPHEMERIS_TYPE":0,"CLASSIFICATION_TYPE":"U","NORAD_CAT_ID":49096,"ELEMENT_SET_NO":999,"REV_AT_EPOCH":22536,"BSTAR":0.00081246,"MEAN_MOTION_DOT":3.05e-06,"MEAN_MOTION_DDOT":0.0},{"OBJECT_NAME":"ONEWEB-0311","OBJECT_ID":"2021-075Y","EPOCH":"2026-04-03T07:10:02.893440","MEAN_MOTION":13.17649405,"ECCENTRICITY":0.0001354,"INCLINATION":87.9193,"RA_OF_ASC_NODE":20.731,"ARG_OF_PERICENTER":79.1516,"MEAN_ANOMALY":280.9768,"EPHEMERIS_TYPE":0,"CLASSIFICATION_TYPE":"U","NORAD_CAT_ID":49097,"ELEMENT_SET_NO":999,"REV_AT_EPOCH":22376,"BSTAR":0.00024434,"MEAN_MOTION_DOT":1.08e-06,"MEAN_MOTION_DDOT":0.0}]